OBJECT_NAME,OBJECT_ID,EPOCH,MEAN_MOTION,ECCENTRICITY,INCLINATION,RA_OF_ASC_NODE,ARG_OF_PERICENTER,MEAN_ANOMALY,EPHEMERIS_TYPE,CLASSIFICATION_TYPE,NORAD_CAT_ID,ELEMENT_SET_NO,REV_AT_EPOCH,BSTAR,MEAN_MOTION_DOT,MEAN_MOTION_DDOT
INTELSAT 23 (IS-23),2012-057A,2026-07-09T18:31:56.376192,1.00269819,.0000451,0.0137,32.9759,185.3196,294.3938,0,U,38867,999,5018,0,-.272E-5,0
FM-6,2013-058A,2026-07-09T14:47:28.649184,1.00269395,.0001241,0.0161,35.2506,140.9152,216.9067,0,U,39360,999,4629,0,-.3E-7,0
INTELSAT 30 (IS-30),2014-062A,2026-07-09T13:12:04.230144,1.00268950,.0001431,0.0192,50.6126,330.1742,9.6671,0,U,40271,999,701,0,-.138E-5,0
DIRECTV 14,2014-078B,2026-07-09T15:50:12.526944,1.00268370,.0000615,0.0093,16.7942,339.6259,69.4903,0,U,40333,999,4226,0,-.112E-5,0
DIRECTV 15,2015-026A,2026-07-09T15:45:47.404224,1.00269341,.0000195,0.0193,71.3039,248.8382,101.0195,0,U,40663,999,4068,0,-.89E-6,0
SKY MEXICO-1,2015-026B,2026-07-09T13:16:41.288160,1.00271787,.0002331,0.0166,351.3120,138.3356,278.2159,0,U,40664,999,4067,0,-.221E-5,0
INTELSAT 34 (IS-34),2015-039A,2026-07-09T20:13:56.386272,1.00269513,.0000275,0.0102,11.2350,338.3613,186.1659,0,U,40874,999,3986,0,-.273E-5,0
INTELSAT 31 (IS-31),2016-035A,2026-07-09T13:12:04.230144,1.00269863,.0001069,0.0203,274.2843,6.7163,109.4498,0,U,41581,999,3690,0,-.138E-5,0
INTELSAT 36 (IS-36),2016-053A,2026-07-07T19:12:15.204672,1.00285795,.00009753,0.0091,10.2892,27.8198,244.1989,0,U,41747,999,3616,0,-.12E-6,0
INTELSAT 32E (IS-32E),2017-007B,2026-07-09T18:34:48.599904,1.00267675,.0000363,0.0256,30.2371,226.8809,266.1101,0,U,41945,999,3445,0,0,0
INTELSAT 35E (IS-35E),2017-041A,2026-07-09T18:37:18.361344,1.00269454,.0001573,0.0274,37.5728,72.9126,62.0634,0,U,42818,999,3304,0,0,0
INTELSAT 37E (IS-37E),2017-059A,2026-07-09T18:42:02.905056,1.00270897,.0002551,0.0183,43.5956,72.2298,74.4023,0,U,42950,999,3229,0,-.128E-5,0
AZERSPACE 2 (IS-38),2018-074A,2026-07-09T18:59:57.697728,1.00271286,.0001508,0.0257,35.8390,98.8931,123.0957,0,U,43632,999,2867,0,0,0
HORIZONS-3E,2018-074B,2026-07-09T19:35:17.813760,1.00272318,.0000781,0.0363,213.3135,67.3154,109.9513,0,U,43633,999,2856,0,-.18E-6,0
AT&T T-16,2019-034A,2026-07-09T13:10:26.884992,1.00264479,.0001094,0.0137,65.4216,264.6613,54.1523,0,U,44333,999,2585,0,-.101E-5,0
INTELSAT 39 (IS-39),2019-049B,2026-07-09T19:04:50.732832,1.00269712,.0000605,0.0252,33.4013,262.3959,340.0879,0,U,44476,999,2535,0,0,0
GALAXY 30 (G-30),2020-056C,2026-07-09T18:11:28.336704,1.00271684,.0001954,0.0242,29.5071,87.1468,318.9045,0,U,46114,999,2151,0,0,0
GALAXY 33 (G-33),2022-128A,2026-07-09T14:43:56.296128,1.00270420,.0001837,0.0144,359.5754,114.8732,261.0888,0,U,54026,999,1396,0,.92E-6,0
GALAXY 34 (G-34),2022-128B,2026-07-09T13:02:20.161824,1.00270076,.000143,0.0139,26.4956,90.6009,236.9722,0,U,54027,999,1413,0,.72E-6,0
GALAXY 31 (G-31),2022-153A,2026-07-09T14:47:18.472128,1.00270133,.0000965,0.0172,36.5492,84.7336,267.0933,0,U,54243,999,735,0,0,0
GALAXY 32 (G-32),2022-153B,2026-07-09T13:13:11.623008,1.00271523,.0001539,0.0107,14.7486,32.7363,347.3033,0,U,54244,999,1336,0,-.161E-5,0
GALAXY 35 (G-35),2022-170A,2026-07-09T13:12:34.180704,1.00270796,.0001967,0.0108,310.6874,162.1064,279.7328,0,U,54741,999,1311,0,-.149E-5,0
GALAXY 36 (G-36),2022-170B,2026-07-09T13:13:49.061856,1.00271742,.0002456,0.0255,121.3936,337.3549,298.1958,0,U,54742,999,1299,0,-.172E-5,0
GALAXY 37 (G-37),2023-112A,2026-07-09T14:45:33.640416,1.00270173,.0001816,0.0156,47.3468,65.5182,269.0780,0,U,57493,999,1076,0,.61E-6,0
