INTELSAT 23 (IS-23)     
1 38867U 12057A   26190.77218028 -.00000272  00000+0  00000+0 0  9990
2 38867   0.0137  32.9759 0000451 185.3196 294.3938  1.00269819 50181
FM-6                    
1 39360U 13058A   26190.61630381 -.00000003  00000+0  00000+0 0  9996
2 39360   0.0161  35.2506 0001241 140.9152 216.9067  1.00269395 46299
INTELSAT 30 (IS-30)     
1 40271U 14062A   26190.55004896 -.00000138  00000+0  00000+0 0  9993
2 40271   0.0192  50.6126 0001431 330.1742   9.6671  1.00268950  7015
DIRECTV 14              
1 40333U 14078B   26190.65986721 -.00000112  00000+0  00000+0 0  9998
2 40333   0.0093  16.7942 0000615 339.6259  69.4903  1.00268370 42267
DIRECTV 15              
1 40663U 15026A   26190.65679866 -.00000089  00000+0  00000+0 0  9990
2 40663   0.0193  71.3039 0000195 248.8382 101.0195  1.00269341 40688
SKY MEXICO-1            
1 40664U 15026B   26190.55325565 -.00000221  00000+0  00000+0 0  9992
2 40664   0.0166 351.3120 0002331 138.3356 278.2159  1.00271787 40672
INTELSAT 34 (IS-34)     
1 40874U 15039A   26190.84301373 -.00000273  00000+0  00000+0 0  9999
2 40874   0.0102  11.2350 0000275 338.3613 186.1659  1.00269513 39860
INTELSAT 31 (IS-31)     
1 41581U 16035A   26190.55004896 -.00000138  00000+0  00000+0 0  9990
2 41581   0.0203 274.2843 0001069   6.7163 109.4498  1.00269863 36903
INTELSAT 36 (IS-36)     
1 41747U 16053A   26188.80017598 -.00000012  00000+0  00000+0 0  9993
2 41747   0.0091  10.2892 0000975  27.8198 244.1989  1.00285795 36163
INTELSAT 32E (IS-32E)   
1 41945U 17007B   26190.77417361  .00000000  00000+0  00000+0 0  9990
2 41945   0.0256  30.2371 0000363 226.8809 266.1101  1.00267675 34458
INTELSAT 35E (IS-35E)   
1 42818U 17041A   26190.77590696  .00000000  00000+0  00000+0 0  9991
2 42818   0.0274  37.5728 0001573  72.9126  62.0634  1.00269454 33045
INTELSAT 37E (IS-37E)   
1 42950U 17059A   26190.77920029 -.00000128  00000+0  00000+0 0  9996
2 42950   0.0183  43.5956 0002551  72.2298  74.4023  1.00270897 32299
AZERSPACE 2 (IS-38)     
1 43632U 18074A   26190.79164002  .00000000  00000+0  00000+0 0  9993
2 43632   0.0257  35.8390 0001508  98.8931 123.0957  1.00271286 28671
HORIZONS-3E             
1 43633U 18074B   26190.81617840 -.00000018  00000+0  00000+0 0  9990
2 43633   0.0363 213.3135 0000781  67.3154 109.9513  1.00272318 28566
AT&T T-16               
1 44333U 19034A   26190.54892228 -.00000101  00000+0  00000+0 0  9993
2 44333   0.0137  65.4216 0001094 264.6613  54.1523  1.00264479 25859
INTELSAT 39 (IS-39)     
1 44476U 19049B   26190.79503163  .00000000  00000+0  00000+0 0  9998
2 44476   0.0252  33.4013 0000605 262.3959 340.0879  1.00269712 25351
GALAXY 30 (G-30)        
1 46114U 20056C   26190.75796686  .00000000  00000+0  00000+0 0  9999
2 46114   0.0242  29.5071 0001954  87.1468 318.9045  1.00271684 21511
GALAXY 33 (G-33)        
1 54026U 22128A   26190.61384602  .00000092  00000+0  00000+0 0  9999
2 54026   0.0144 359.5754 0001837 114.8732 261.0888  1.00270420 13969
GALAXY 34 (G-34)        
1 54027U 22128B   26190.54328891  .00000072  00000+0  00000+0 0  9998
2 54027   0.0139  26.4956 0001430  90.6009 236.9722  1.00270076 14130
GALAXY 31 (G-31)        
1 54243U 22153A   26190.61618602  .00000000  00000+0  00000+0 0  9997
2 54243   0.0172  36.5492 0000965  84.7336 267.0933  1.00270133  7352
GALAXY 32 (G-32)        
1 54244U 22153B   26190.55082897 -.00000161  00000+0  00000+0 0  9991
2 54244   0.0107  14.7486 0001539  32.7363 347.3033  1.00271523 13368
GALAXY 35 (G-35)        
1 54741U 22170A   26190.55039561 -.00000149  00000+0  00000+0 0  9998
2 54741   0.0108 310.6874 0001967 162.1064 279.7328  1.00270796 13110
GALAXY 36 (G-36)        
1 54742U 22170B   26190.55126229 -.00000172  00000+0  00000+0 0  9993
2 54742   0.0255 121.3936 0002456 337.3549 298.1958  1.00271742 12999
GALAXY 37 (G-37)        
1 57493U 23112A   26190.61497269  .00000061  00000+0  00000+0 0  9994
2 57493   0.0156  47.3468 0001816  65.5182 269.0780  1.00270173 10764
